SPOT 6                  
1 38755U 12047A   26202.29317236 -.00000037  00000+0  18053-5 0  9999
2 38755  98.2098 269.1997 0001112  93.6547 266.4779 14.58540183738028
SPOT 7                  
1 40053U 14034A   26202.28878615  .00000125  00000+0  34737-4 0  9996
2 40053  98.0606 263.8988 0001645  95.1600 264.9789 14.60983738642112
